{"type": "FeatureCollection", "features": [{"type": "Feature", "properties": {"norad_id": 28054, "name": "DMSP 5D-3 F16 (USA 172)", "group": "weather", "lat": 78.92364175874725, "lon": -44.29718648749292, "alt_km": 840.4051264607633, "timestamp": "2025-12-18T07:01:54.229184+00:00", "meta": {"OBJECT_NAME": "DMSP 5D-3 F16 (USA 172)", "OBJECT_ID": "2003-048A", "EPOCH": "2025-12-17T22:26:50.618112", "MEAN_MOTION": 14.1442618, "ECCENTRICITY": 0.00063444, "INCLINATION": 99.0041, "RA_OF_ASC_NODE": 9.4331, "ARG_OF_PERICENTER": 304.4018, "MEAN_ANOMALY": 118.8191, "EPHEMERIS_TYPE": 0, "CLASSIFICATION_TYPE": "U", "NORAD_CAT_ID": 28054, "ELEMENT_SET_NO": 999, "REV_AT_EPOCH": 14386, "BSTAR": 8.1554179e-05, "MEAN_MOTION_DOT": 1.11e-06, "MEAN_MOTION_DDOT": 0}, "tle": {"line1": "1 28054U 03048A   25351.93530808  .00000111  00000+0  81554-4 0  9995", "line2": "2 28054  99.0041   9.4331 0006344 304.4018 118.8191 14.14426180143863"}}, "geometry": {"type": "Point", "coordinates": [-44.29718648749292, 78.92364175874725]}}, {"type": "Feature", "properties": {"norad_id": 28912, "name": "METEOSAT-9 (MSG-2)", "group": "weather", "lat": -0.406882427548178, "lon": -121.60839950007825, "alt_km": 35769.8847283205, "timestamp": "2025-12-18T07:01:54.229234+00:00", "meta": {"OBJECT_NAME": "METEOSAT-9 (MSG-2)", "OBJECT_ID": "2005-049B", "EPOCH": "2025-12-17T18:40:44.289696", "MEAN_MOTION": 1.00279199, "ECCENTRICITY": 0.00033756, "INCLINATION": 8.9502, "RA_OF_ASC_NODE": 55.9296, "ARG_OF_PERICENTER": 190.8164, "MEAN_ANOMALY": 165.8697, "EPHEMERIS_TYPE": 0, "CLASSIFICATION_TYPE": "U", "NORAD_CAT_ID": 28912, "ELEMENT_SET_NO": 999, "REV_AT_EPOCH": 517, "BSTAR": 0, "MEAN_MOTION_DOT": 1.4e-06, "MEAN_MOTION_DDOT": 0}, "tle": {"line1": "1 28912U 05049B   25351.77829039  .00000140  00000+0  00000+0 0  9994", "line2": "2 28912   8.9502  55.9296 0003375 190.8164 165.8697  1.00279199  5174"}}, "geometry": {"type": "Point", "coordinates": [-121.60839950007825, -0.406882427548178]}}, {"type": "Feature", "properties": {"norad_id": 29522, "name": "DMSP 5D-3 F17 (USA 191)", "group": "weather", "lat": 33.09989206427021, "lon": -8.188377933146546, "alt_km": 847.393607460579, "timestamp": "2025-12-18T07:01:54.229251+00:00", "meta": {"OBJECT_NAME": "DMSP 5D-3 F17 (USA 191)", "OBJECT_ID": "2006-050A", "EPOCH": "2025-12-17T22:23:15.500256", "MEAN_MOTION": 14.14921833, "ECCENTRICITY": 0.00096027, "INCLINATION": 98.7391, "RA_OF_ASC_NODE": 357.2138, "ARG_OF_PERICENTER": 209.1551, "MEAN_ANOMALY": 150.9088, "EPHEMERIS_TYPE": 0, "CLASSIFICATION_TYPE": "U", "NORAD_CAT_ID": 29522, "ELEMENT_SET_NO": 999, "REV_AT_EPOCH": 98678, "BSTAR": 9.7501517e-05, "MEAN_MOTION_DOT": 1.45e-06, "MEAN_MOTION_DDOT": 0}, "tle": {"line1": "1 29522U 06050A   25351.93281829  .00000145  00000+0  97502-4 0  9995", "line2": "2 29522  98.7391 357.2138 0009602 209.1551 150.9088 14.14921833986783"}}, "geometry": {"type": "Point", "coordinates": [-8.188377933146546, 33.09989206427021]}}, {"type": "Feature", "properties": {"norad_id": 32958, "name": "FENGYUN 3A", "group": "weather", "lat": -19.15825304703064, "lon": 108.66402463006135, "alt_km": 832.3807087796522, "timestamp": "2025-12-18T07:01:54.229265+00:00", "meta": {"OBJECT_NAME": "FENGYUN 3A", "OBJECT_ID": "2008-026A", "EPOCH": "2025-12-17T18:15:12.197376", "MEAN_MOTION": 14.19516208, "ECCENTRICITY": 0.00077297, "INCLINATION": 98.6701, "RA_OF_ASC_NODE": 291.1816, "ARG_OF_PERICENTER": 294.451, "MEAN_ANOMALY": 65.586, "EPHEMERIS_TYPE": 0, "CLASSIFICATION_TYPE": "U", "NORAD_CAT_ID": 32958, "ELEMENT_SET_NO": 999, "REV_AT_EPOCH": 90966, "BSTAR": 5.4639693e-05, "MEAN_MOTION_DOT": 7.2e-07, "MEAN_MOTION_DDOT": 0}, "tle": {"line1": "1 32958U 08026A   25351.76055784  .00000072  00000+0  54640-4 0  9992", "line2": "2 32958  98.6701 291.1816 0007729 294.4510  65.5860 14.19516208909665"}}, "geometry": {"type": "Point", "coordinates": [108.66402463006135, -19.15825304703064]}}, {"type": "Feature", "properties": {"norad_id": 35491, "name": "GOES 14", "group": "weather", "lat": -0.09958736720594365, "lon": 79.36339851027914, "alt_km": 35837.475330495516, "timestamp": "2025-12-18T07:01:54.229280+00:00", "meta": {"OBJECT_NAME": "GOES 14", "OBJECT_ID": "2009-033A", "EPOCH": "2025-12-17T16:12:50.951808", "MEAN_MOTION": 1.00096698, "ECCENTRICITY": 5.283e-05, "INCLINATION": 1.2154, "RA_OF_ASC_NODE": 85.3504, "ARG_OF_PERICENTER": 175.8954, "MEAN_ANOMALY": 315.6433, "EPHEMERIS_TYPE": 0, "CLASSIFICATION_TYPE": "U", "NORAD_CAT_ID": 35491, "ELEMENT_SET_NO": 999, "REV_AT_EPOCH": 477, "BSTAR": 0, "MEAN_MOTION_DOT": 1.1e-07, "MEAN_MOTION_DDOT": 0}, "tle": {"line1": "1 35491U 09033A   25351.67558972  .00000011  00000+0  00000+0 0  9992", "line2": "2 35491   1.2154  85.3504 0000528 175.8954 315.6433  1.00096698  4778"}}, "geometry": {"type": "Point", "coordinates": [79.36339851027914, -0.09958736720594365]}}, {"type": "Feature", "properties": {"norad_id": 35951, "name": "DMSP 5D-3 F18 (USA 210)", "group": "weather", "lat": -75.16688240137965, "lon": 112.46731662354641, "alt_km": 857.8498467456548, "timestamp": "2025-12-18T07:01:54.229293+00:00", "meta": {"OBJECT_NAME": "DMSP 5D-3 F18 (USA 210)", "OBJECT_ID": "2009-057A", "EPOCH": "2025-12-17T21:19:44.855040", "MEAN_MOTION": 14.14772676, "ECCENTRICITY": 0.00119475, "INCLINATION": 98.8838, "RA_OF_ASC_NODE": 328.2638, "ARG_OF_PERICENTER": 49.2383, "MEAN_ANOMALY": 310.9825, "EPHEMERIS_TYPE": 0, "CLASSIFICATION_TYPE": "U", "NORAD_CAT_ID": 35951, "ELEMENT_SET_NO": 999, "REV_AT_EPOCH": 83395, "BSTAR": 0.00015510667, "MEAN_MOTION_DOT": 2.55e-06, "MEAN_MOTION_DDOT": 0}, "tle": {"line1": "1 35951U 09057A   25351.88871360  .00000255  00000+0  15511-3 0  9998", "line2": "2 35951  98.8838 328.2638 0011947  49.2383 310.9825 14.14772676833953"}}, "geometry": {"type": "Point", "coordinates": [112.46731662354641, -75.16688240137965]}}, {"type": "Feature", "properties": {"norad_id": 36411, "name": "EWS-G2 (GOES 15)", "group": "weather", "lat": 0.14582425399084825, "lon": -106.01100878630496, "alt_km": 35763.31656733312, "timestamp": "2025-12-18T07:01:54.229306+00:00", "meta": {"OBJECT_NAME": "EWS-G2 (GOES 15)", "OBJECT_ID": "2010-008A", "EPOCH": "2025-12-17T15:07:16.805568", "MEAN_MOTION": 1.00270754, "ECCENTRICITY": 0.00054896, "INCLINATION": 0.8255, "RA_OF_ASC_NODE": 86.0725, "ARG_OF_PERICENTER": 176.7321, "MEAN_ANOMALY": 111.8959, "EPHEMERIS_TYPE": 0, "CLASSIFICATION_TYPE": "U", "NORAD_CAT_ID": 36411, "ELEMENT_SET_NO": 999, "REV_AT_EPOCH": 5781, "BSTAR": 0, "MEAN_MOTION_DOT": 6.2e-07, "MEAN_MOTION_DDOT": 0}, "tle": {"line1": "1 36411U 10008A   25351.63005562  .00000062  00000+0  00000+0 0  9993", "line2": "2 36411   0.8255  86.0725 0005489 176.7321 111.8959  1.00270754 57819"}}, "geometry": {"type": "Point", "coordinates": [-106.01100878630496, 0.14582425399084825]}}, {"type": "Feature", "properties": {"norad_id": 36744, "name": "COMS 1", "group": "weather", "lat": -3.88870631764339, "lon": -39.26503670772253, "alt_km": 35784.203446770975, "timestamp": "2025-12-18T07:01:54.229320+00:00", "meta": {"OBJECT_NAME": "COMS 1", "OBJECT_ID": "2010-032A", "EPOCH": "2025-12-17T15:38:54.201408", "MEAN_MOTION": 1.00271201, "ECCENTRICITY": 7.666e-05, "INCLINATION": 4.3522, "RA_OF_ASC_NODE": 77.943, "ARG_OF_PERICENTER": 207.8131, "MEAN_ANOMALY": 163.6647, "EPHEMERIS_TYPE": 0, "CLASSIFICATION_TYPE": "U", "NORAD_CAT_ID": 36744, "ELEMENT_SET_NO": 999, "REV_AT_EPOCH": 4927, "BSTAR": 0, "MEAN_MOTION_DOT": -3.23e-06, "MEAN_MOTION_DDOT": 0}, "tle": {"line1": "1 36744U 10032A   25351.65201622 -.00000323  00000+0  00000+0 0  9997", "line2": "2 36744   4.3522  77.9430 0000766 207.8131 163.6647  1.00271201 49272"}}, "geometry": {"type": "Point", "coordinates": [-39.26503670772253, -3.88870631764339]}}, {"type": "Feature", "properties": {"norad_id": 37214, "name": "FENGYUN 3B", "group": "weather", "lat": -42.330488921963095, "lon": -155.9824127822933, "alt_km": 857.1975329598254, "timestamp": "2025-12-18T07:01:54.229332+00:00", "meta": {"OBJECT_NAME": "FENGYUN 3B", "OBJECT_ID": "2010-059A", "EPOCH": "2025-12-17T23:44:18.374784", "MEAN_MOTION": 14.1479099, "ECCENTRICITY": 0.00218103, "INCLINATION": 98.9907, "RA_OF_ASC_NODE": 32.0033, "ARG_OF_PERICENTER": 342.781, "MEAN_ANOMALY": 133.4177, "EPHEMERIS_TYPE": 0, "CLASSIFICATION_TYPE": "U", "NORAD_CAT_ID": 37214, "ELEMENT_SET_NO": 999, "REV_AT_EPOCH": 78180, "BSTAR": 0.0001164484, "MEAN_MOTION_DOT": 1.79e-06, "MEAN_MOTION_DDOT": 0}, "tle": {"line1": "1 37214U 10059A   25351.98910156  .00000179  00000+0  11645-3 0  9993", "line2": "2 37214  98.9907  32.0033 0021810 342.7810 133.4177 14.14790990781803"}}, "geometry": {"type": "Point", "coordinates": [-155.9824127822933, -42.330488921963095]}}, {"type": "Feature", "properties": {"norad_id": 37849, "name": "SUOMI NPP", "group": "weather", "lat": 21.469925405005164, "lon": 113.06857549027744, "alt_km": 825.6110032823217, "timestamp": "2025-12-18T07:01:54.229344+00:00", "meta": {"OBJECT_NAME": "SUOMI NPP", "OBJECT_ID": "2011-061A", "EPOCH": "2025-12-17T18:26:51.454176", "MEAN_MOTION": 14.19515647, "ECCENTRICITY": 0.00023828, "INCLINATION": 98.7779, "RA_OF_ASC_NODE": 289.065, "ARG_OF_PERICENTER": 111.4739, "MEAN_ANOMALY": 248.6691, "EPHEMERIS_TYPE": 0, "CLASSIFICATION_TYPE": "U", "NORAD_CAT_ID": 37849, "ELEMENT_SET_NO": 999, "REV_AT_EPOCH": 73270, "BSTAR": 5.2887893e-05, "MEAN_MOTION_DOT": 6.7e-07, "MEAN_MOTION_DDOT": 0}, "tle": {"line1": "1 37849U 11061A   25351.76865109  .00000067  00000+0  52888-4 0  9995", "line2": "2 37849  98.7779 289.0650 0002382 111.4739 248.6691 14.19515647732709"}}, "geometry": {"type": "Point", "coordinates": [113.06857549027744, 21.469925405005164]}}]}